[{"OBJECT_NAME":"HORS 2","OBJECT_ID":"2023-091AG","EPOCH":"2026-03-09T22:11:34.810944","MEAN_MOTION":15.2928008,"ECCENTRICITY":0.00098173,"INCLINATION":97.5195,"RA_OF_ASC_NODE":134.7443,"ARG_OF_PERICENTER":79.3164,"MEAN_ANOMALY":280.9181,"EPHEMERIS_TYPE":0,"CLASSIFICATION_TYPE":"U","NORAD_CAT_ID":57196,"ELEMENT_SET_NO":999,"REV_AT_EPOCH":14934,"BSTAR":0.00059338338,"MEAN_MOTION_DOT":0.00016821,"MEAN_MOTION_DDOT":0},{"OBJECT_NAME":"STARLINK-31059","OBJECT_ID":"2023-200H","EPOCH":"2026-03-09T21:40:06.305664","MEAN_MOTION":15.27563564,"ECCENTRICITY":0.0001092,"INCLINATION":43.0034,"RA_OF_ASC_NODE":10.9243,"ARG_OF_PERICENTER":285.1741,"MEAN_ANOMALY":74.8989,"EPHEMERIS_TYPE":0,"CLASSIFICATION_TYPE":"U","NORAD_CAT_ID":58596,"ELEMENT_SET_NO":999,"REV_AT_EPOCH":12548,"BSTAR":2.5643834e-5,"MEAN_MOTION_DOT":4.43e-6,"MEAN_MOTION_DDOT":0}]
